{
  "norad_id": 63684,
  "name": "STARLINK-33853",
  "history": [
    {
      "epoch": "2026-03-28T20:20:06.979200Z",
      "apogee_km": 483.72372022879335,
      "perigee_km": 482.0638996552516,
      "latitude_deg": 5.006343855265553e-05,
      "longitude_deg": 151.10079753792868,
      "height_km": 482.6184919734823,
      "semi_major_axis_km": 6861.030809942022,
      "eccentricity": 0.00012096,
      "inclination_deg": 43.0003,
      "raan_deg": 282.3917,
      "arg_perigee_deg": 273.5846,
      "mean_anomaly_deg": 86.4868,
      "mean_motion_rev_day": 15.27631861
    }
  ]
}