{"fetched_at":"2026-03-30T06:02:59Z","count":15439,"tles":[{"name":"STARLINK-33853","line1":"1 63684U 25085W   26087.84730300  .00025436  00000+0  92920-3 0  9999","line2":"2 63684  43.0003 282.3917 0001209 273.5846  86.4868 15.27631861 51802","category":"Starlink"}]}